IRIDIUM 180             
1 43922U 19002A   25359.69142174  .00000032  00000+0  45056-5 0  9999
2 43922  86.3955  66.1261 0001862  97.2648 262.8760 14.34217971364129
IRIDIUM 176             
1 43923U 19002B   25359.63743407  .00000849  00000+0  13070-3 0  9995
2 43923  86.6077  66.1180 0002259  94.0160 266.1315 14.72248607373713
IRIDIUM 168             
1 43924U 19002C   25359.61531154  .00000218  00000+0  70684-4 0  9993
2 43924  86.3959  66.2307 0002122  98.4453 261.6983 14.34217221364092
IRIDIUM 173             
1 43925U 19002D   25359.74215772  .00000304  00000+0  10134-3 0  9992
2 43925  86.3958  66.0735 0002096 100.6257 259.5175 14.34215308364096
IRIDIUM 172             
1 43927U 19002F   25359.73582032  .00000115  00000+0  33989-4 0  9993
2 43927  86.3958  66.0836 0002007  95.7301 264.4124 14.34217719364105
IRIDIUM 175             
1 43928U 19002G   25359.56476134  .00000844  00000+0  12993-3 0  9990
2 43928  86.1497   7.8278 0003170  80.2612 279.8962 14.72243987373693
